STARLINK-34566          
1 64765U 25147L   25193.25001157 -.01522140  69376-3 -33765-2 0  9995
2 64765  53.1584 288.9004 0000913  69.0364 131.8900 15.97351038  1801
STARLINK-34645          
1 64766U 25147M   25193.25001157 -.01524656  69664-3 -33624-2 0  9994
2 64766  53.1584 288.8985 0000796  74.7056 127.0976 15.97457114  1801
STARLINK-34639          
1 64767U 25147N   25193.50002315 -.01596090  75299-3 -36408-2 0  9995
2 64767  53.1582 287.6147 0000975  63.8063 137.4157 15.96855990  1790
STARLINK-34609          
1 64768U 25147P   25193.50002315 -.01601625  75870-3 -36306-2 0  9999
2 64768  53.1582 287.6124 0000961  53.0249 149.2455 15.96970820  1846
STARLINK-34246          
1 64769U 25147Q   25193.50002315 -.01614733  77131-3 -36324-2 0  9996
2 64769  53.1581 287.6100 0001018  57.1382 146.3263 15.97111679  1842
STARLINK-34618          
1 64770U 25147R   25193.25001157 -.01576664  74493-3 -33806-2 0  9993
2 64770  53.1584 288.8900 0000887  69.3450 136.3376 15.97971781  1697
STARLINK-34541          
1 64771U 25147S   25193.25001157 -.01588590  75635-3 -33824-2 0  9994
2 64771  53.1585 288.8880 0000865  68.5464 138.0989 15.98099243  1681
STARLINK-34652          
1 64772U 25147T   25193.25001157 -.01596566  76425-3 -33786-2 0  9992
2 64772  53.1584 288.8860 0000734  66.3006 141.2373 15.98210472  1808
STARLINK-34612          
1 64773U 25147U   25193.25001157 -.01610108  77738-3 -33813-2 0  9991
2 64773  53.1584 288.8839 0000674  69.4414 139.1096 15.98349324  1802
STARLINK-34621          
1 64774U 25147V   25193.25001157 -.01622328  78940-3 -33821-2 0  9994
2 64774  53.1584 288.8816 0000726  64.6355 144.9052 15.98481823  1691
STARLINK-34657          
1 64775U 25147W   25193.25001157 -.01635017  80202-3 -33824-2 0  9991
2 64775  53.1585 288.8796 0000914  71.2354 139.3336 15.98620645  1805
STARLINK-34637          
1 64776U 25147X   25193.25001157 -.01643540  81068-3 -33799-2 0  9994
2 64776  53.1584 288.8779 0000887  72.0465 139.3958 15.98727599  1690
STARLINK-34547          
1 64777U 25147Y   25193.25001157 -.01652803  82018-3 -33767-2 0  9998
2 64777  53.1584 288.8760 0000791  71.3931 140.9731 15.98845793  1756
STARLINK-34537          
1 64778U 25147Z   25193.25001157 -.01669615  83699-3 -33833-2 0  9998
2 64778  53.1584 288.8739 0000826  69.8878 143.5231 15.98993049  1846
STARLINK-34585          
1 64779U 25147AA  25193.25001157 -.01678006  84587-3 -33779-2 0  9999
2 64779  53.1583 288.8720 0000794  60.4812 153.8497 15.99111350  1751
STARLINK-34491          
1 64780U 25147AB  25193.50002315 -.01736727  89495-3 -36317-2 0  9995
2 64780  53.1580 287.5853 0001051  54.5923 160.6380 15.98443238  1846
STARLINK-34582          
1 64781U 25147AC  25193.25001157 -.01701196  87032-3 -33705-2 0  9996
2 64781  53.1585 288.8677 0000695  67.2196 149.1508 15.99395937  1696
STARLINK-34482          
1 64782U 25147AD  25193.25001157 -.01711392  88138-3 -33638-2 0  9999
2 64782  53.1584 288.8656 0000720  70.9080 146.4868 15.99537621  1849
2025-145C               
1 64783U 25145C   25193.66108291  .00083019  00000+0  35551-1 0  9998
2 64783  10.9847  19.7394 0039221 281.2652 145.9260 14.22733550   532
